#aV2014  8  8  0  0  0.00000000     288 DD+AD WGS84 FIT  NGA
## 1804 432000.00000000   300.00000000 56877 0.0000000000000
+   32     1  2  3  4  5  6  7  8  9 10 11 12 13 14 15 16 17
+         18 19 20 21 22 23 24 25 26 27 28 29 30 31 32  0  0
+          0  0  0  0  0  0  0  0  0  0  0  0  0  0  0  0  0
+          0  0  0  0  0  0  0  0  0  0  0  0  0  0  0  0  0
+          0  0  0  0  0  0  0  0  0  0  0  0  0  0  0  0  0
++         2  2  2  2  2  2  2  2  2  2  2  2  2  2  2  2  2
++         2  2  2  2  2  2  2  2  2  2  2  2  2  2  2  0  0
++         0  0  0  0  0  0  0  0  0  0  0  0  0  0  0  0  0
++         0  0  0  0  0  0  0  0  0  0  0  0  0  0  0  0  0
++         0  0  0  0  0  0  0  0  0  0  0  0  0  0  0  0  0
%c cc cc ccc ccc cccc cccc cccc cccc ccccc ccccc ccccc ccccc
%c cc cc ccc ccc cccc cccc cccc cccc ccccc ccccc ccccc ccccc
%f  0.0000000  0.000000000  0.00000000000  0.000000000000000
%f  0.0000000  0.000000000  0.00000000000  0.000000000000000
%i    0    0    0    0      0      0      0      0         0
%i    0    0    0    0      0      0      0      0         0
/*      NGA, ST. LOUIS,MO.                                  
/*   EPHEMERIS COMPUTED FROM  1 DAYS OF DATA                
/*   EPOCHA SMOOTHER                                       
/* CCCCCCCCCCCCCCCCCCCCCCCCCCCCCCCCCCCCCCCCCCCCCCCCCCCCCCCCC
*  2014  8  8 12 15  0.00000000
P  1 -14047.012623 -13246.356970 -18343.491754     19.239047                    
V  1  23189.427352   -694.085189 -17144.529564      0.006877                    
P  2 -11655.997407  14137.089510  19364.737326    511.384563                    
V  2 -24176.140236  -1722.461888 -13993.622176      0.021856                    
P  3   3173.254666 -24876.995566  -9109.052030    401.185681                    
V  3   7107.149538  -8807.295129  28418.637998      0.049447                    
P  4 -26123.434751  -3609.939978  -4362.103683      7.169287                    
V  4   5192.241584  -3117.254281 -30466.360225     -0.000703                    
P  5  -2068.142379  20709.769815  16365.538018   -351.171176                    
V  5 -12051.685489 -17292.152166  20480.649634      0.033640                    
P  6 -22732.559205   7497.524088  11482.816350     -3.539913                    
V  6 -14544.827936  -2724.977548 -26999.793334     -0.013789                    
P  7 -24474.384438  -6911.017694   8346.002763    377.805565                    
V  7  10457.603287  -1428.297635  29428.097577      0.042915                    
P  8 -26171.673607  -5691.142649   2612.576599     15.126954                    
V  8   3163.417871   -670.268113  31893.002077      0.001375                    
P  9 -17374.650216  19282.311951   6886.305729     12.132929                    
V  9   2399.269093  -8539.986716  29966.810542      0.069251                    
P 10 -14318.283688   5974.602185  21224.241753   -137.002555                    
V 10 -12993.886684 -24608.446136  -1389.180360     -0.015175                    
P 11  -6746.716852 -15603.588631 -20924.546000   -511.715534                    
V 11  24553.566690  -7776.997063  -1975.134353     -0.029700                    
P 12  10548.369755  24429.465609  -1988.749320    223.533145                    
V 12  -2646.229935  -1382.851502 -32069.319108      0.025798                    
P 13 -12054.952691  -8612.836372  21921.691501    -28.888596                    
V 13  17183.987311 -22212.565169    548.573299     -0.039371                    
P 14  19568.240365 -10119.365238 -14494.118627    146.772012                    
V 14  -9345.612905  16500.566922 -23910.771880     -0.036281                    
P 15    223.795708  21938.408149 -14816.572026   -195.690967                    
V 15 -11665.660553  15133.220324  22612.392997     -0.022207                    
P 16   2658.484328 -20257.375909  16709.689220   -202.715413                    
V 16  10447.866246  18751.945585  21341.935814      0.023485                    
P 17 -19184.669744  10397.319072 -14719.071330   -114.994032                    
V 17   8999.091819 -17117.362588 -23629.223164     -0.028055                    
P 18  18889.708507  11652.272788 -14356.323522    336.716042                    
V 18   6818.037039  17954.678437  22487.207115      0.024728                    
P 19   4982.324603 -22180.157670 -13508.704409   -472.436219                    
V 19  12109.658861 -12241.448495  25296.239625     -0.019758                    
P 20 -14895.550705 -21994.412485   1167.950841    219.677998                    
V 20   2341.317646  -3493.965176 -30881.703925      0.043010                    
P 21  26211.423658   3879.995706   4636.520178   -377.204476                    
V 21  -5101.497354   3077.385594  30127.280537     -0.021353                    
P 22  16334.436841  -2664.934096 -20579.601157    257.113978                    
V 22  12308.106596  23769.218182   6456.883364      0.031166                    
P 23  -6212.388291 -16641.700438  19736.011655    -42.895129                    
V 23  14479.993530 -20383.775641 -13133.544663     -0.029657                    
P 24   9845.016028  14333.112406 -20124.917581    -33.189019                    
V 24 -25507.089436    701.092930 -11893.487659     -0.006330                    
P 25  17028.575141  18272.612194   9143.701923     23.944463                    
V 25   3814.664410  11207.436762 -29118.350369     -0.005393                    
P 26 -11368.510177  22956.270737  -7070.077247    -12.750986                    
V 26  -6841.584394   5067.944107  30540.539671     -0.129405                    
P 27  12112.724798 -23448.084648  -2668.428957      4.316845                    
V 27   4103.024758  -1453.572634  31633.941476      0.032280                    
P 28 -16225.159245  -3309.863562 -20195.270302    375.653954                    
V 28 -10549.354019 -24777.627912  12053.010791      0.028903                    
P 29  12658.872164   8098.802754  21928.639281    552.243505                    
V 29 -15659.493840  22901.807910    624.944576      0.025936                    
P 30 -26456.299968  -1046.652669  -2407.080270    -45.364727                    
V 30  -2739.212634  -3127.631041  31485.945910     -0.056717                    
P 31  21933.326142  -7712.485404  13272.578922    332.895610                    
V 31  16342.071944   2482.207505 -25557.225666     -0.003145                    
P 32  -3650.035503 -24900.425883  -9261.271178   -367.472737                    
V 32   7000.528567   9679.608859 -28105.856503      0.084386                    
EOF
